NORAD_CAT_ID,OBJECT_NAME,OBJECT_TYPE,EPOCH,MEAN_MOTION,ECCENTRICITY,INCLINATION,RA_OF_ASC_NODE,ARG_OF_PERICENTER,MEAN_ANOMALY,BSTAR,MEAN_MOTION_DOT,MEAN_MOTION_DDOT,TLE_LINE0,TLE_LINE1,TLE_LINE2,SEMIMAJOR_AXIS,PERIOD,APOGEE,PERIGEE,DECAYED
53992.0,STARLINK-5108,PAYLOAD,2023-01-16 03:50:35,15.088855300000002,0.0001139,53.2166,330.074,102.5376,257.5744,0.001238,0.00019494,0.0,0 STARLINK-5108,1 53992U 22125AE  23016.16013028  .00019494  00000-0  12380-2 0  9996,2 53992  53.2166 330.0740 0001139 102.5376 257.5744 15.08885530 16147,6917.741,95.435,540.394,538.818,0.0
53992.0,STARLINK-5108,PAYLOAD,2023-01-16 07:01:21,15.08900145,0.0001274,53.2163,329.4789,109.4704,250.6426,0.0016519,0.00026143,0.0,0 STARLINK-5108,1 53992U 22125AE  23016.29260521  .00026143  00000-0  16519-2 0  9999,2 53992  53.2163 329.4789 0001274 109.4704 250.6426 15.08900145 16084,6917.696999999999,95.434,540.443,538.68,0.0
53992.0,STARLINK-5108,PAYLOAD,2023-01-16 13:22:54,15.0884457,0.0002191999999999,53.2158,328.29,77.8926,282.2312,-0.00016907,-2.978e-05,0.0,0 STARLINK-5108,1 53992U 22125AE  23016.55757382 -.00002978  00000-0 -16907-3 0  9998,2 53992  53.2158 328.2900 0002192  77.8926 282.2312 15.08844570 16202,6917.866,95.437,541.248,538.215,0.0
53992.0,STARLINK-5108,PAYLOAD,2023-01-16 21:19:50,15.08806989,0.0001258,53.2157,326.8043,92.0948,268.0188,-0.0012372,-0.00019906,0.0,0 STARLINK-5108,1 53992U 22125AE  23016.88878150 -.00019906  00000-0 -12372-2 0  9991,2 53992  53.2157 326.8043 0001258  92.0948 268.0188 15.08806989 16179,6917.981,95.44,540.717,538.976,0.0
53992.0,STARLINK-5108,PAYLOAD,2023-01-17 03:41:23,15.08810929,0.0001551999999999,53.2159,325.6162,101.3226,258.79400000000004,-0.00045181,-7.466e-05,0.0,0 STARLINK-5108,1 53992U 22125AE  23017.15374697 -.00007466  00000-0 -45181-3 0  9992,2 53992  53.2159 325.6162 0001552 101.3226 258.7940 15.08810929 16294,6917.969,95.439,540.908,538.761,0.0
53992.0,STARLINK-5108,PAYLOAD,2023-01-17 13:13:43,15.08822535,0.000122,53.2156,323.8305,83.8635,276.2496,0.0018965,0.00030009,0.0,0 STARLINK-5108,1 53992U 22125AE  23017.55119748  .00030009  00000-0  18965-2 0  9996,2 53992  53.2156 323.8305 0001220  83.8635 276.2496 15.08822535 16275,6917.934,95.439,540.643,538.955,0.0
53992.0,STARLINK-5108,PAYLOAD,2023-01-18 05:07:34,15.08874047,0.0001225,53.2154,320.8564,86.031,274.0822,0.0026819,0.00042693,0.0,0 STARLINK-5108,1 53992U 22125AE  23018.21359460  .00042693  00000-0  26819-2 0  9996,2 53992  53.2154 320.8564 0001225  86.0310 274.0822 15.08874047 16451,6917.776,95.435,540.489,538.794,0.0
53992.0,STARLINK-5108,PAYLOAD,2023-01-19 01:47:34,15.08877186,0.0001916999999999,53.216,316.9886,147.7822,212.3288,0.0015494999999999,0.00024484,0.0,0 STARLINK-5108,1 53992U 22125AE  23019.07470062  .00024484  00000-0  15495-2 0  9999,2 53992  53.2160 316.9886 0001917 147.7822 212.3288 15.08877186 16584,6917.767,95.435,540.9580000000001,538.306,0.0
53992.0,STARLINK-5108,PAYLOAD,2023-01-19 04:58:20,15.08886499,0.0001418,53.2153,316.3958,74.5526,285.5622,0.001761,0.00027885,0.0,0 STARLINK-5108,1 53992U 22125AE  23019.20718177  .00027885  00000-0  17610-2 0  9995,2 53992  53.2153 316.3958 0001418  74.5526 285.5622 15.08886499 16529,6917.738,95.435,540.5840000000001,538.622,0.0
53992.0,STARLINK-5108,PAYLOAD,2023-01-19 19:16:49,15.08837533,0.0001179,53.2157,313.7183,129.8737,230.2359,0.0018467,0.00029222,0.0,0 STARLINK-5108,1 53992U 22125AE  23019.80334682  .00029222  00000-0  18467-2 0  9994,2 53992  53.2157 313.7183 0001179 129.8737 230.2359 15.08837533 16693,6917.888000000001,95.438,540.569,538.937,0.0
53992.0,STARLINK-5108,PAYLOAD,2023-01-20 01:38:21,15.08842732,0.0001107999999999,53.2163,312.528,119.1126,240.9977,0.001556,0.00024564,0.0,0 STARLINK-5108,1 53992U 22125AE  23020.06830887  .00024564  00000-0  15560-2 0  9997,2 53992  53.2163 312.5280 0001108 119.1126 240.9977 15.08842732 16737,6917.871999999999,95.437,540.504,538.971,0.0
53992.0,STARLINK-5108,PAYLOAD,2023-01-20 12:46:03,15.08850308,6.34e-05,53.216,310.4453,192.0112,168.0865,0.001432,0.00022582,0.0,0 STARLINK-5108,1 53992U 22125AE  23020.53198884  .00022582  00000-0  14320-2 0  9994,2 53992  53.2160 310.4453 0000634 192.0112 168.0865 15.08850308 16803,6917.849,95.437,540.1519999999999,539.275,0.0
53992.0,STARLINK-5108,PAYLOAD,2023-01-21 01:29:09,15.08841035,0.0001185,53.2145,308.0691,108.8237,251.2884,0.00067783,0.00010516,0.0,0 STARLINK-5108,1 53992U 22125AE  23021.06191573  .00010516  00000-0  67783-3 0  9997,2 53992  53.2145 308.0691 0001185 108.8237 251.2884 15.08841035 16889,6917.877,95.437,540.562,538.922,0.0
53992.0,STARLINK-5108,PAYLOAD,2023-01-21 12:36:51,15.08840776,0.0001499,53.216,305.9864,98.8153,261.3008,0.00050848,7.814e-05,0.0,0 STARLINK-5108,1 53992U 22125AE  23021.52559780  .00007814  00000-0  50848-3 0  9997,2 53992  53.2160 305.9864 0001499  98.8153 261.3008 15.08840776 16956,6917.878000000001,95.438,540.78,538.706,0.0
53992.0,STARLINK-5108,PAYLOAD,2023-01-22 04:30:42,15.08859768,0.0001539,53.2151,303.0147,74.6913,285.4249,0.00071147,0.00011059,0.0,0 STARLINK-5108,1 53992U 22125AE  23022.18799099  .00011059  00000-0  71147-3 0  9990,2 53992  53.2151 303.0147 0001539  74.6913 285.4249 15.08859768 17057,6917.82,95.436,540.75,538.62,0.0
53992.0,STARLINK-5108,PAYLOAD,2023-01-22 18:49:10,15.08841043,0.0001459,53.2166,300.3352,90.6035,269.5124,0.00010624,1.403e-05,0.0,0 STARLINK-5108,1 53992U 22125AE  23022.78415321  .00001403  00000-0  10624-3 0  9994,2 53992  53.2166 300.3352 0001459  90.6035 269.5124 15.08841043 17147,6917.877,95.437,540.752,538.7330000000001,0.0
53992.0,STARLINK-5108,PAYLOAD,2023-01-23 04:21:29,15.0884518,0.0001343,53.2155,298.5523,74.7424,285.3716,0.00093271,0.00014589,0.0,0 STARLINK-5108,1 53992U 22125AE  23023.18159531  .00014589  00000-0  93271-3 0  9995,2 53992  53.2155 298.5523 0001343  74.7424 285.3716 15.08845180 17206,6917.865,95.437,540.659,538.8,0.0
53992.0,STARLINK-5108,PAYLOAD,2023-01-24 02:36:53,15.08861602,0.0001323,53.2168,294.3887,75.8629,284.251,0.00089702,0.00014025,0.0,0 STARLINK-5108,1 53992U 22125AE  23024.10895199  .00014025  00000-0  89702-3 0  9994,2 53992  53.2168 294.3887 0001323  75.8629 284.2510 15.08861602 17346,6917.814,95.436,540.595,538.764,0.0
53992.0,STARLINK-5108,PAYLOAD,2023-01-24 23:16:54,15.08839981,0.0001460999999999,53.2161,290.527,82.3763,277.7395,0.00014182,1.97e-05,0.0,0 STARLINK-5108,1 53992U 22125AE  23024.97007754  .00001970  00000-0  14182-3 0  9996,2 53992  53.2161 290.5270 0001461  82.3763 277.7395 15.08839981 17475,6917.88,95.438,540.756,538.735,0.0
53992.0,STARLINK-5108,PAYLOAD,2023-01-25 10:24:36,15.08843927,0.0001588999999999,53.2151,288.4407,71.1712,288.9452,0.00047257,7.242e-05,0.0,0 STARLINK-5108,1 53992U 22125AE  23025.43375732  .00007242  00000-0  47257-3 0  9999,2 53992  53.2151 288.4407 0001589  71.1712 288.9452 15.08843927 17465,6917.868,95.437,540.8330000000001,538.634,0.0
53992.0,STARLINK-5108,PAYLOAD,2023-01-26 02:18:27,15.08843705,0.0001641999999999,53.2155,285.4676,79.4104,280.7073,0.00028499,4.251e-05,0.0,0 STARLINK-5108,1 53992U 22125AE  23026.09615622  .00004251  00000-0  28499-3 0  9991,2 53992  53.2155 285.4676 0001642  79.4104 280.7073 15.08843705 17643,6917.869000000001,95.437,540.87,538.5980000000001,0.0
53992.0,STARLINK-5108,PAYLOAD,2023-01-27 11:41:34,15.0883859,0.000124,53.2156,279.2255,83.3297,276.7837,0.00013403,1.846e-05,0.0,0 STARLINK-5108,1 53992U 22125AE  23027.48720184  .00001846  00000-0  13403-3 0  9991,2 53992  53.2156 279.2255 0001240  83.3297 276.7837 15.08838590 17772,6917.885,95.438,540.6080000000001,538.8919999999999,0.0
53992.0,STARLINK-5108,PAYLOAD,2023-01-27 21:13:52,15.08835823,0.0001272,53.214,277.4413,71.2518,288.8612,2.1231e-05,5e-07,0.0,0 STARLINK-5108,1 53992U 22125AE  23027.88464084  .00000050  00000-0  21231-4 0  9994,2 53992  53.2140 277.4413 0001272  71.2518 288.8612 15.08835823 17836,6917.893,95.438,540.638,538.878,0.0
53992.0,STARLINK-5108,PAYLOAD,2023-01-28 03:35:25,15.08847149,0.000129,53.2145,276.2488,86.6529,273.461,0.00018838,2.712e-05,0.0,0 STARLINK-5108,1 53992U 22125AE  23028.14959688  .00002712  00000-0  18838-3 0  9998,2 53992  53.2145 276.2488 0001290  86.6529 273.4610 15.08847149 17878,6917.859,95.437,540.616,538.831,0.0
53992.0,STARLINK-5108,PAYLOAD,2023-01-28 16:18:30,15.08839098,0.000124,53.2138,273.87,84.1221,275.9912,2.1673e-05,5.7e-07,0.0,0 STARLINK-5108,1 53992U 22125AE  23028.67952031  .00000057  00000-0  21673-4 0  9993,2 53992  53.2138 273.8700 0001240  84.1221 275.9912 15.08839098 18032,6917.883,95.438,540.606,538.89,0.0
53992.0,STARLINK-5108,PAYLOAD,2023-01-28 21:04:39,15.08844996,0.0001311,53.2136,272.9794,83.9392,276.1749,0.0001305,1.79e-05,0.0,0 STARLINK-5108,1 53992U 22125AE  23028.87823787  .00001790  00000-0  13050-3 0  9994,2 53992  53.2136 272.9794 0001311  83.9392 276.1749 15.08844996 17985,6917.865,95.437,540.637,538.823,0.0
53992.0,STARLINK-5108,PAYLOAD,2023-01-29 01:50:48,15.0885114,0.0001307,53.2141,272.0859,90.1744,269.9398,0.00028525,4.256e-05,0.0,0 STARLINK-5108,1 53992U 22125AE  23029.07695558  .00004256  00000-0  28525-3 0  9993,2 53992  53.2141 272.0859 0001307  90.1744 269.9398 15.08851140 18092,6917.846,95.437,540.616,538.807,0.0
53992.0,STARLINK-5108,PAYLOAD,2023-01-29 17:44:40,15.08839545,0.0001123,53.2147,269.1111,113.7809,246.3301,0.00014239,1.979e-05,0.0,0 STARLINK-5108,1 53992U 22125AE  23029.73935950  .00001979  00000-0  14239-3 0  9995,2 53992  53.2147 269.1111 0001123 113.7809 246.3301 15.08839545 18195,6917.882,95.438,540.524,538.97,0.0
53992.0,STARLINK-5108,PAYLOAD,2023-01-29 22:30:50,15.08840015,0.00012,53.214,268.2204,92.8407,267.2723,0.00016816,2.389e-05,0.0,0 STARLINK-5108,1 53992U 22125AE  23029.93808127  .00002389  00000-0  16816-3 0  9991,2 53992  53.2140 268.2204 0001200  92.8407 267.2723 15.08840015 18147,6917.88,95.438,540.575,538.915,0.0
